{
  "norad_id": 61691,
  "name": "STARLINK-11339 [DTC]",
  "history": [
    {
      "epoch": "2026-03-28T20:38:44.149344",
      "apogee_km": 360.22058087289224,
      "perigee_km": 359.26258929566393,
      "latitude_deg": 53.00560725659655,
      "longitude_deg": 71.68238816014491,
      "semi_major_axis_km": 6737.878585084278,
      "eccentricity": 7.109e-05,
      "inclination_deg": 53.1586,
      "raan_deg": 291.8232,
      "arg_perigee_deg": 77.9742,
      "mean_anomaly_deg": 282.1356,
      "mean_motion_rev_day": 15.69704816
    }
  ]
}