{"fetched_at":"2026-03-30T06:02:59Z","count":15439,"tles":[{"name":"STARLINK-11339 [DTC]","line1":"1 61691U 24195E   26087.86023321  .00000445  00000+0  85281-5 0  9993","line2":"2 61691  53.1586 291.8232 0000710  77.9742 282.1356 15.69704816 82042","category":"Starlink"}]}